[{"OBJECT_NAME":"BEIDOU-3 G1 (C59)","OBJECT_ID":"2018-085A","EPOCH":"2026-04-26T21:10:20.992224","MEAN_MOTION":1.00265471,"ECCENTRICITY":0.0007381,"INCLINATION":2.9463,"RA_OF_ASC_NODE":98.7324,"ARG_OF_PERICENTER":333.4211,"MEAN_ANOMALY":260.2406,"EPHEMERIS_TYPE":0,"CLASSIFICATION_TYPE":"U","NORAD_CAT_ID":43683,"ELEMENT_SET_NO":999,"REV_AT_EPOCH":2754,"BSTAR":0,"MEAN_MOTION_DOT":-1.18e-6,"MEAN_MOTION_DDOT":0},{"OBJECT_NAME":"BEIDOU-3 M17 (C36)","OBJECT_ID":"2018-093A","EPOCH":"2026-04-26T05:38:40.897248","MEAN_MOTION":1.862284,"ECCENTRICITY":0.00090191,"INCLINATION":54.1668,"RA_OF_ASC_NODE":184.059,"ARG_OF_PERICENTER":291.536,"MEAN_ANOMALY":74.8287,"EPHEMERIS_TYPE":0,"CLASSIFICATION_TYPE":"U","NORAD_CAT_ID":43706,"ELEMENT_SET_NO":999,"REV_AT_EPOCH":5057,"BSTAR":0,"MEAN_MOTION_DOT":-2.0e-8,"MEAN_MOTION_DDOT":0},{"OBJECT_NAME":"BEIDOU-3 M18 (C37)","OBJECT_ID":"2018-093B","EPOCH":"2026-04-26T02:07:30.395136","MEAN_MOTION":1.86226332,"ECCENTRICITY":0.00070232,"INCLINATION":54.1674,"RA_OF_ASC_NODE":184.0561,"ARG_OF_PERICENTER":324.9602,"MEAN_ANOMALY":35.0533,"EPHEMERIS_TYPE":0,"CLASSIFICATION_TYPE":"U","NORAD_CAT_ID":43707,"ELEMENT_SET_NO":999,"REV_AT_EPOCH":5056,"BSTAR":0,"MEAN_MOTION_DOT":-3.0e-8,"MEAN_MOTION_DDOT":0},{"OBJECT_NAME":"BEIDOU-3 IGSO-1 (C38)","OBJECT_ID":"2019-023A","EPOCH":"2026-04-20T00:53:25.118592","MEAN_MOTION":1.00256582,"ECCENTRICITY":0.00243579,"INCLINATION":58.6186,"RA_OF_ASC_NODE":38.2497,"ARG_OF_PERICENTER":235.9811,"MEAN_ANOMALY":64.3555,"EPHEMERIS_TYPE":0,"CLASSIFICATION_TYPE":"U","NORAD_CAT_ID":44204,"ELEMENT_SET_NO":999,"REV_AT_EPOCH":662,"BSTAR":0,"MEAN_MOTION_DOT":-2.28e-6,"MEAN_MOTION_DDOT":0},{"OBJECT_NAME":"BEIDOU-2 G8 (C01)","OBJECT_ID":"2019-027A","EPOCH":"2026-04-26T21:05:58.910784","MEAN_MOTION":1.00268164,"ECCENTRICITY":0.00110133,"INCLINATION":1.53,"RA_OF_ASC_NODE":74.3743,"ARG_OF_PERICENTER":279.3166,"MEAN_ANOMALY":322.1799,"EPHEMERIS_TYPE":0,"CLASSIFICATION_TYPE":"U","NORAD_CAT_ID":44231,"ELEMENT_SET_NO":999,"REV_AT_EPOCH":2556,"BSTAR":0,"MEAN_MOTION_DOT":-2.58e-6,"MEAN_MOTION_DDOT":0},{"OBJECT_NAME":"BEIDOU-3 IGSO-2 (C39)","OBJECT_ID":"2019-035A","EPOCH":"2026-04-26T12:25:24.089952","MEAN_MOTION":1.00282508,"ECCENTRICITY":0.00393691,"INCLINATION":55.2353,"RA_OF_ASC_NODE":159.3158,"ARG_OF_PERICENTER":215.1492,"MEAN_ANOMALY":145.9118,"EPHEMERIS_TYPE":0,"CLASSIFICATION_TYPE":"U","NORAD_CAT_ID":44337,"ELEMENT_SET_NO":999,"REV_AT_EPOCH":2515,"BSTAR":0,"MEAN_MOTION_DOT":-9.7e-7,"MEAN_MOTION_DDOT":0},{"OBJECT_NAME":"BEIDOU-3 M24 (C46)","OBJECT_ID":"2019-061A","EPOCH":"2026-04-26T03:47:18.765312","MEAN_MOTION":1.86228959,"ECCENTRICITY":0.00080301,"INCLINATION":54.3941,"RA_OF_ASC_NODE":184.4828,"ARG_OF_PERICENTER":6.8993,"MEAN_ANOMALY":353.1712,"EPHEMERIS_TYPE":0,"CLASSIFICATION_TYPE":"U","NORAD_CAT_ID":44542,"ELEMENT_SET_NO":999,"REV_AT_EPOCH":4482,"BSTAR":0,"MEAN_MOTION_DOT":-3.0e-8,"MEAN_MOTION_DDOT":0},{"OBJECT_NAME":"BEIDOU-3 M23 (C45)","OBJECT_ID":"2019-061B","EPOCH":"2026-04-26T06:32:38.616288","MEAN_MOTION":1.86227142,"ECCENTRICITY":0.00050407,"INCLINATION":54.3929,"RA_OF_ASC_NODE":184.4471,"ARG_OF_PERICENTER":348.5066,"MEAN_ANOMALY":0.4603,"EPHEMERIS_TYPE":0,"CLASSIFICATION_TYPE":"U","NORAD_CAT_ID":44543,"ELEMENT_SET_NO":999,"REV_AT_EPOCH":4482,"BSTAR":0,"MEAN_MOTION_DOT":-2.0e-8,"MEAN_MOTION_DDOT":0},{"OBJECT_NAME":"BEIDOU-3 IGSO-3 (C40)","OBJECT_ID":"2019-073A","EPOCH":"2026-04-25T20:42:52.587360","MEAN_MOTION":1.00252806,"ECCENTRICITY":0.00421169,"INCLINATION":54.8923,"RA_OF_ASC_NODE":281.4605,"ARG_OF_PERICENTER":188.7957,"MEAN_ANOMALY":171.0495,"EPHEMERIS_TYPE":0,"CLASSIFICATION_TYPE":"U","NORAD_CAT_ID":44709,"ELEMENT_SET_NO":999,"REV_AT_EPOCH":2393,"BSTAR":0,"MEAN_MOTION_DOT":-1.95e-6,"MEAN_MOTION_DDOT":0},{"OBJECT_NAME":"BEIDOU-3 M22 (C44)","OBJECT_ID":"2019-078A","EPOCH":"2026-04-25T23:55:40.497600","MEAN_MOTION":1.86226949,"ECCENTRICITY":0.0007305,"INCLINATION":53.9841,"RA_OF_ASC_NODE":301.6629,"ARG_OF_PERICENTER":45.8856,"MEAN_ANOMALY":314.1715,"EPHEMERIS_TYPE":0,"CLASSIFICATION_TYPE":"U","NORAD_CAT_ID":44793,"ELEMENT_SET_NO":999,"REV_AT_EPOCH":4367,"BSTAR":0,"MEAN_MOTION_DOT":-5.5e-7,"MEAN_MOTION_DDOT":0},{"OBJECT_NAME":"BEIDOU-3 M21 (C43)","OBJECT_ID":"2019-078B","EPOCH":"2026-04-26T16:10:34.856256","MEAN_MOTION":1.86227493,"ECCENTRICITY":0.00051843,"INCLINATION":53.9567,"RA_OF_ASC_NODE":301.6016,"ARG_OF_PERICENTER":43.3217,"MEAN_ANOMALY":316.7148,"EPHEMERIS_TYPE":0,"CLASSIFICATION_TYPE":"U","NORAD_CAT_ID":44794,"ELEMENT_SET_NO":999,"REV_AT_EPOCH":4369,"BSTAR":0,"MEAN_MOTION_DOT":-6.0e-7,"MEAN_MOTION_DDOT":0},{"OBJECT_NAME":"BEIDOU-3 M19 (C41)","OBJECT_ID":"2019-090A","EPOCH":"2026-04-26T12:41:07.837152","MEAN_MOTION":1.86231351,"ECCENTRICITY":0.0019771,"INCLINATION":56.5164,"RA_OF_ASC_NODE":64.4967,"ARG_OF_PERICENTER":296.1367,"MEAN_ANOMALY":163.2976,"EPHEMERIS_TYPE":0,"CLASSIFICATION_TYPE":"U","NORAD_CAT_ID":44864,"ELEMENT_SET_NO":999,"REV_AT_EPOCH":4327,"BSTAR":0,"MEAN_MOTION_DOT":-4.0e-7,"MEAN_MOTION_DDOT":0},{"OBJECT_NAME":"BEIDOU-3 M20 (C42)","OBJECT_ID":"2019-090B","EPOCH":"2026-04-26T09:49:20.534880","MEAN_MOTION":1.86231167,"ECCENTRICITY":0.0017474,"INCLINATION":56.518,"RA_OF_ASC_NODE":64.5353,"ARG_OF_PERICENTER":308.364,"MEAN_ANOMALY":160.6881,"EPHEMERIS_TYPE":0,"CLASSIFICATION_TYPE":"U","NORAD_CAT_ID":44865,"ELEMENT_SET_NO":999,"REV_AT_EPOCH":4325,"BSTAR":0,"MEAN_MOTION_DOT":-3.8e-7,"MEAN_MOTION_DDOT":0},{"OBJECT_NAME":"BEIDOU-3 G2 (C60)","OBJECT_ID":"2020-017A","EPOCH":"2026-04-26T23:02:09.642912","MEAN_MOTION":1.0027143,"ECCENTRICITY":0.00025443,"INCLINATION":2.7633,"RA_OF_ASC_NODE":46.5357,"ARG_OF_PERICENTER":348.1977,"MEAN_ANOMALY":245.8021,"EPHEMERIS_TYPE":0,"CLASSIFICATION_TYPE":"U","NORAD_CAT_ID":45344,"ELEMENT_SET_NO":999,"REV_AT_EPOCH":2274,"BSTAR":0,"MEAN_MOTION_DOT":-1.49e-6,"MEAN_MOTION_DDOT":0},{"OBJECT_NAME":"BEIDOU-3 G3 (C61)","OBJECT_ID":"2020-040A","EPOCH":"2026-04-26T22:38:57.492672","MEAN_MOTION":1.00270304,"ECCENTRICITY":0.00037565,"INCLINATION":2.3235,"RA_OF_ASC_NODE":67.2985,"ARG_OF_PERICENTER":329.8075,"MEAN_ANOMALY":268.1123,"EPHEMERIS_TYPE":0,"CLASSIFICATION_TYPE":"U","NORAD_CAT_ID":45807,"ELEMENT_SET_NO":999,"REV_AT_EPOCH":2155,"BSTAR":0,"MEAN_MOTION_DOT":-3.63e-6,"MEAN_MOTION_DDOT":0},{"OBJECT_NAME":"BEIDOU-3 G4 (C62)","OBJECT_ID":"2023-066A","EPOCH":"2026-04-26T22:47:19.192416","MEAN_MOTION":1.00272365,"ECCENTRICITY":0.00028173,"INCLINATION":0.557,"RA_OF_ASC_NODE":320.0464,"ARG_OF_PERICENTER":160.5187,"MEAN_ANOMALY":216.2962,"EPHEMERIS_TYPE":0,"CLASSIFICATION_TYPE":"U","NORAD_CAT_ID":56564,"ELEMENT_SET_NO":999,"REV_AT_EPOCH":1088,"BSTAR":0,"MEAN_MOTION_DOT":-2.93e-6,"MEAN_MOTION_DDOT":0},{"OBJECT_NAME":"BEIDOU-3 M28 (C50)","OBJECT_ID":"2023-207A","EPOCH":"2026-04-26T18:01:45.497856","MEAN_MOTION":1.86229709,"ECCENTRICITY":0.00046007,"INCLINATION":55.7097,"RA_OF_ASC_NODE":64.0374,"ARG_OF_PERICENTER":323.2817,"MEAN_ANOMALY":36.6572,"EPHEMERIS_TYPE":0,"CLASSIFICATION_TYPE":"U","NORAD_CAT_ID":58654,"ELEMENT_SET_NO":999,"REV_AT_EPOCH":1588,"BSTAR":0,"MEAN_MOTION_DOT":-4.4e-7,"MEAN_MOTION_DDOT":0}]
